[{"OBJECT_NAME":"AL-FARABI 2","OBJECT_ID":"2018-099AZ","EPOCH":"2026-03-09T22:26:01.961088","MEAN_MOTION":15.6820138,"ECCENTRICITY":0.00045442,"INCLINATION":97.4095,"RA_OF_ASC_NODE":144.7856,"ARG_OF_PERICENTER":216.2732,"MEAN_ANOMALY":143.8222,"EPHEMERIS_TYPE":0,"CLASSIFICATION_TYPE":"U","NORAD_CAT_ID":43805,"ELEMENT_SET_NO":999,"REV_AT_EPOCH":39939,"BSTAR":0.0015578554,"MEAN_MOTION_DOT":0.00177018,"MEAN_MOTION_DDOT":0},{"OBJECT_NAME":"STARLINK-11163 [DTC]","OBJECT_ID":"2024-112K","EPOCH":"2026-03-09T19:38:11.215104","MEAN_MOTION":15.69687262,"ECCENTRICITY":9.178e-5,"INCLINATION":53.1592,"RA_OF_ASC_NODE":265.4541,"ARG_OF_PERICENTER":103.1854,"MEAN_ANOMALY":256.9267,"EPHEMERIS_TYPE":0,"CLASSIFICATION_TYPE":"U","NORAD_CAT_ID":60047,"ELEMENT_SET_NO":999,"REV_AT_EPOCH":10100,"BSTAR":-5.495469e-6,"MEAN_MOTION_DOT":-1.253e-5,"MEAN_MOTION_DDOT":0}]
